      2.10          N: GNSS NAV DATA                        RINEX VERSION / TYPE
fic2rin                                 10/11/2020 00:17:34 PGM / RUN BY / DATE
                                                            END OF HEADER
10 20 10 11  0  0  0.0-4.765428602695e-04-9.549694368616e-12 0.000000000000e+00
    2.300000000000e+01-7.818750000000e+01 4.306607958936e-09 3.464299437977e-01
   -4.062429070473e-06 5.974447936751e-03 7.880851626396e-06 5.153672048569e+03
    0.000000000000e+00 3.911554813385e-08 1.608268067849e+00 1.266598701477e-07
    9.665568199655e-01 2.322500000000e+02-2.663849124671e+00-8.004619138803e-09
    8.643217167545e-11 1.000000000000e+00 2.127000000000e+03 0.000000000000e+00
    2.400000000000e+00 0.000000000000e+00 2.328306436539e-09 2.300000000000e+01
   -7.200000000000e+03 4.000000000000e+00
 8 20 10 11  0  0  0.0-5.102204158902e-05-1.364242052659e-12 0.000000000000e+00
    8.600000000000e+01 5.818750000000e+01 4.197317692272e-09-1.635259457932e+00
    3.099441528320e-06 5.554254632443e-03 6.018206477165e-06 5.153733772278e+03
    0.000000000000e+00-5.401670932770e-08-4.994536603869e-01-7.450580596924e-09
    9.691719308611e-01 2.701562500000e+02-6.889563832845e-02-7.984975463422e-09
    6.928860043404e-11 1.000000000000e+00 2.127000000000e+03 0.000000000000e+00
    3.400000000000e+00 0.000000000000e+00 5.122274160385e-09 8.600000000000e+01
   -7.200000000000e+03 4.000000000000e+00
 4 20 10 11  0  0  0.0-1.439610496163e-04-3.979039320257e-12 0.000000000000e+00
    2.190000000000e+02 5.156250000000e+00 4.669480216880e-09-2.387375215372e+00
    1.862645149231e-07 8.406322449446e-04 9.195879101753e-06 5.153620107651e+03
    0.000000000000e+00-9.313225746155e-09 2.690926570910e+00 1.117587089539e-08
    9.604411538406e-01 2.067812500000e+02-2.942308335227e+00-7.935330538369e-09
    3.560862609935e-10 1.000000000000e+00 2.127000000000e+03 0.000000000000e+00
    2.400000000000e+00 0.000000000000e+00-4.190951585770e-09 9.870000000000e+02
   -7.200000000000e+03 4.000000000000e+00
13 20 10 11  0  0  0.0 5.352124571800e-05 3.751665644813e-12 0.000000000000e+00
    5.300000000000e+01-7.187500000000e-01 4.480900933224e-09-2.426131100064e+00
   -1.881271600723e-07 4.637191072106e-03 8.946284651756e-06 5.153685941696e+03
    0.000000000000e+00 1.024454832077e-07 2.786911450985e+00-2.421438694000e-08
    9.682766952166e-01 2.096250000000e+02 1.046047854606e+00-7.783181343601e-09
    3.785871982478e-10 1.000000000000e+00 2.127000000000e+03 0.000000000000e+00
    2.400000000000e+00 0.000000000000e+00-1.117587089539e-08 5.300000000000e+01
   -7.200000000000e+03 4.000000000000e+00
 9 20 10 11  0  0  0.0-2.983771264553e-04-5.343281372916e-12 0.000000000000e+00
    1.080000000000e+02-1.062500000000e+00 4.868774232561e-09-1.337279845336e+00
    5.587935447693e-08 1.862764707766e-03 9.275972843170e-06 5.153635938644e+03
    0.000000000000e+00-1.862645149231e-08 2.641948257944e+00 6.519258022308e-08
    9.531857926085e-01 2.012187500000e+02 1.752338049925e+00-8.040692069956e-09
    3.764442518427e-10 1.000000000000e+00 2.127000000000e+03 0.000000000000e+00
    2.400000000000e+00 0.000000000000e+00 1.396983861923e-09 1.080000000000e+02
   -7.200000000000e+03 4.000000000000e+00
30 20 10 11  0  0  0.0-3.176433965564e-04-6.934897101019e-12 0.000000000000e+00
    3.000000000000e+01 2.381250000000e+01 5.455941547579e-09 1.634427465699e+00
    1.337379217148e-06 4.771747975610e-03 6.729736924171e-06 5.153576547623e+03
    0.000000000000e+00 5.587935447693e-09-2.547555995339e+00 1.247972249985e-07
    9.379878804688e-01 2.392812500000e+02-2.808473829191e+00-8.442851678661e-09
   -1.696499237431e-10 1.000000000000e+00 2.127000000000e+03 0.000000000000e+00
    2.400000000000e+00 0.000000000000e+00 3.725290298462e-09 3.000000000000e+01
   -7.200000000000e+03 4.000000000000e+00
27 20 10 11  0  0  0.0-4.155677743256e-04-8.753886504564e-12 0.000000000000e+00
    5.000000000000e+01 5.534375000000e+01 3.931949495765e-09-1.765675199025e+00
    2.957880496979e-06 8.401077124290e-03 6.446614861488e-06 5.153676467896e+03
    0.000000000000e+00 3.911554813385e-08-4.840717277819e-01-1.080334186554e-07
    9.776630599564e-01 2.655000000000e+02 5.722394334179e-01-7.807110911792e-09
    5.785955293977e-11 1.000000000000e+00 2.127000000000e+03 0.000000000000e+00
    2.400000000000e+00 0.000000000000e+00 1.862645149231e-09 5.000000000000e+01
   -7.200000000000e+03 4.000000000000e+00
22 20 10 11  0  0  0.0-7.447930984199e-04 4.547473508865e-12 0.000000000000e+00
    3.500000000000e+01-7.800000000000e+01 5.025566477873e-09-2.763287214095e+00
   -4.060566425323e-06 6.717416574247e-03 7.530674338341e-06 5.153713256836e+03
    0.000000000000e+00 5.774199962616e-08 1.519889056863e+00 7.264316082001e-08
    9.318401691234e-01 2.134375000000e+02-1.082486879364e+00-8.199270103939e-09
    9.643258823294e-11 1.000000000000e+00 2.127000000000e+03 0.000000000000e+00
    2.400000000000e+00 0.000000000000e+00-1.816079020500e-08 3.500000000000e+01
   -7.200000000000e+03 4.000000000000e+00
19 20 10 11  0  0  0.0-9.345076978207e-05 5.002220859751e-12 0.000000000000e+00
    2.700000000000e+01 6.096875000000e+01 4.042311235631e-09 7.014263013809e-01
    3.015622496605e-06 9.119341149926e-03 5.997717380524e-06 5.153596773148e+03
    0.000000000000e+00-3.166496753693e-08-3.794235536340e-01-1.750886440277e-07
    9.820135647381e-01 2.821250000000e+02 1.732957508705e+00-8.102480357972e-09
   -1.857220217820e-11 1.000000000000e+00 2.127000000000e+03 0.000000000000e+00
    2.400000000000e+00 0.000000000000e+00-1.536682248116e-08 2.700000000000e+01
   -7.200000000000e+03 4.000000000000e+00
15 20 10 11  0  0  0.0-1.978073269129e-04 2.614797267597e-12 0.000000000000e+00
    6.300000000000e+01-1.859375000000e+01 5.254861743227e-09-2.669014152981e+00
   -1.268461346626e-06 1.289880252443e-02 9.436160326004e-06 5.153760129929e+03
    0.000000000000e+00 2.123415470123e-07 2.548928614799e+00-1.862645149231e-07
    9.287078464667e-01 1.784062500000e+02 9.302397791693e-01-8.088551206339e-09
    4.139458139333e-10 1.000000000000e+00 2.127000000000e+03 0.000000000000e+00
    2.400000000000e+00 0.000000000000e+00-1.071020960808e-08 6.300000000000e+01
   -7.200000000000e+03 4.000000000000e+00
25 20 10 11  0  0  0.0 3.426335752010e-06 5.911715561524e-12 0.000000000000e+00
    3.400000000000e+01 3.471875000000e+01 4.490187034313e-09 7.011102525591e-01
    1.920387148857e-06 9.182841749862e-03 8.704140782356e-06 5.153728635788e+03
    0.000000000000e+00-1.285225152969e-07-1.530451092791e+00 8.568167686462e-08
    9.635942777294e-01 2.122500000000e+02 9.321533169787e-01-8.138196131392e-09
   -4.896632535828e-10 1.000000000000e+00 2.127000000000e+03 0.000000000000e+00
    2.400000000000e+00 0.000000000000e+00 5.587935447693e-09 3.400000000000e+01
   -7.200000000000e+03 4.000000000000e+00
20 20 10 11  0  0  0.0 5.264445208013e-04-1.136868377216e-13 0.000000000000e+00
    4.800000000000e+01-8.809375000000e+01 5.043781522317e-09 1.828539024230e+00
   -4.593282938004e-06 5.711917416193e-03 6.597489118576e-06 5.153664089203e+03
    0.000000000000e+00 9.313225746155e-09 1.472855346771e+00 7.636845111847e-08
    9.351438155792e-01 2.391250000000e+02 2.723537510635e+00-8.277487647728e-09
    8.214627886510e-12 1.000000000000e+00 2.127000000000e+03 0.000000000000e+00
    2.400000000000e+00 0.000000000000e+00-8.847564458847e-09 4.800000000000e+01
   -7.200000000000e+03 4.000000000000e+00
26 20 10 11  0  0  0.0 2.932017669082e-04 6.252776074689e-12 0.000000000000e+00
    2.900000000000e+01 2.662500000000e+01 4.935562728856e-09 1.551451467610e-01
    1.320615410805e-06 5.063314805739e-03 7.718801498413e-06 5.153691816330e+03
    0.000000000000e+00 4.284083843231e-08-1.568306674291e+00 5.401670932770e-08
    9.446147165031e-01 2.191562500000e+02 1.994047574828e-01-8.301774373654e-09
   -4.364467511876e-10 1.000000000000e+00 2.127000000000e+03 0.000000000000e+00
    2.400000000000e+00 0.000000000000e+00 6.984919309616e-09 2.900000000000e+01
   -7.200000000000e+03 4.000000000000e+00
31 20 10 11  0  0  0.0-7.414165884256e-05-2.387423592154e-12 0.000000000000e+00
    8.100000000000e+01 2.356250000000e+01 4.997708174606e-09 1.311629295745e+00
    1.512467861176e-06 9.745825780556e-03 6.655231118202e-06 5.153666627884e+03
    0.000000000000e+00 5.774199962616e-08-2.552041689843e+00 1.043081283569e-07
    9.571052266344e-01 2.481250000000e+02 1.719871125707e-01-8.264987127032e-09
   -2.682254583813e-10 1.000000000000e+00 2.127000000000e+03 0.000000000000e+00
    2.400000000000e+00 0.000000000000e+00-1.303851604462e-08 8.100000000000e+01
   -7.200000000000e+03 4.000000000000e+00
24 20 10 11  0  0  0.0-1.961365342140e-05-4.547473508865e-13 0.000000000000e+00
    1.120000000000e+02 2.815625000000e+01 5.372723795512e-09 2.655767456106e+00
    1.378357410431e-06 1.023441157304e-02 6.843358278275e-06 5.153628747940e+03
    0.000000000000e+00-7.264316082001e-08-2.642595811317e+00-1.788139343262e-07
    9.360957627059e-01 2.342500000000e+02 6.831628370915e-01-8.209984835965e-09
   -2.892977646988e-11 1.000000000000e+00 2.127000000000e+03 0.000000000000e+00
    3.400000000000e+00 0.000000000000e+00 2.793967723846e-09 1.120000000000e+02
   -7.200000000000e+03 4.000000000000e+00
23 20 10 11  0  0  0.0 8.342880755663e-05 6.707523425575e-12 0.000000000000e+00
    1.230000000000e+02-8.781250000000e+01 4.435899058715e-09 2.464999497786e+00
   -4.630535840988e-06 1.065275515430e-03 7.608905434608e-06 5.153624092102e+03
    0.000000000000e+00-5.587935447693e-09 1.586000497298e+00 1.490116119385e-08
    9.614815709382e-01 2.342500000000e+02 1.959472993812e+00-7.969974838586e-09
    8.928943354902e-11 1.000000000000e+00 2.127000000000e+03 0.000000000000e+00
    2.400000000000e+00 0.000000000000e+00-8.381903171539e-09 1.230000000000e+02
   -7.200000000000e+03 4.000000000000e+00
